{
    "satellites": [
        {
            "name": "starlink307",
            "title": "Starlink-307 (G10-59)",
            "tle": [
                "1 65909C 25224AD  25295.06784722 -.01428600  00000+0 -94287-2 0  2956",
                "2 65909  53.1518 299.1496 0000772 116.0441 317.7295 15.76365754    11"
            ],
            "stdMag": 5,
            "noradId": "65909",
            "tleUrl": "http://celestrak.org/NORAD/elements/supplemental/sup-gp.php?FILE=starlink&FORMAT=tle",
            "launchDate": "2025-10-07T06:46:10.000Z",
            "active": true,
            "batch": [
                {
                    "noradId": "65909",
                    "tle": [
                        "1 65909C 25224AD  25295.06784722 -.01428600  00000+0 -94287-2 0  2956",
                        "2 65909  53.1518 299.1496 0000772 116.0441 317.7295 15.76365754    11"
                    ]
                },
                {
                    "noradId": "65908",
                    "tle": [
                        "1 65908C 25224AC  25295.06159722 -.01623700  00000+0 -10515-1 0  2950",
                        "2 65908  53.1517 299.1960 0001000  77.7567 313.3953 15.76999823    15"
                    ]
                },
                {
                    "noradId": "65907",
                    "tle": [
                        "1 65907C 25224AB  25295.06923611 -.01546300  00000+0 -10129-1 0  2956",
                        "2 65907  53.1516 299.1479 0000767  93.5563 345.5938 15.76657994    19"
                    ]
                },
                {
                    "noradId": "65906",
                    "tle": [
                        "1 65906C 25224AA  25295.07201389 -.01573400  00000+0 -10258-1 0  2951",
                        "2 65906  53.1518 299.1397 0000872  98.8596 353.7900 15.76794029    11"
                    ]
                },
                {
                    "noradId": "65905",
                    "tle": [
                        "1 65905C 25224Z   25295.06645833 -.01629000  00000+0 -10508-1 0  2951",
                        "2 65905  53.1519 299.1776 0000771  92.0503 324.4598 15.77093899    10"
                    ]
                },
                {
                    "noradId": "65903",
                    "tle": [
                        "1 65903C 25224X   25295.06715278 -.01623400  00000+0 -10334-1 0  2955",
                        "2 65903  53.1513 299.1833 0000851  84.1060 331.4735 15.77391101    13"
                    ]
                },
                {
                    "noradId": "65904",
                    "tle": [
                        "1 65904C 25224Y   25295.06159722 -.01614000  00000+0 -10212-1 0  2953",
                        "2 65904  53.1512 299.2162 0000858  85.1643 296.4920 15.77520364    15"
                    ]
                },
                {
                    "noradId": "65896",
                    "tle": [
                        "1 65896C 25224Q   25295.06854167 -.01507400  00000+0 -91587-2 0  2958",
                        "2 65896  53.1502 299.2185 0000775  79.2712 324.2923 15.78329623    17"
                    ]
                },
                {
                    "noradId": "65902",
                    "tle": [
                        "1 65902C 25224W   25295.06229167 -.01631400  00000+0 -10447-1 0  2955",
                        "2 65902  53.1516 299.2021 0000772  77.0247 313.3746 15.77265145    14"
                    ]
                },
                {
                    "noradId": "65901",
                    "tle": [
                        "1 65901C 25224V   25295.06854167 -.01601700  00000+0 -10107-1 0  2951",
                        "2 65901  53.1513 299.1862 0000760  94.9026 323.9757 15.77570301    14"
                    ]
                },
                {
                    "noradId": "65900",
                    "tle": [
                        "1 65900C 25224U   25295.06437500 -.01591700  00000+0 -99981-2 0  2954",
                        "2 65900  53.1505 299.2107 0000721  92.8396 300.0976 15.77662640    18"
                    ]
                },
                {
                    "noradId": "65897",
                    "tle": [
                        "1 65897C 25224R   25295.06159722 -.01552100  00000+0 -95835-2 0  2951",
                        "2 65897  53.1502 299.2369 0000886  87.5017 284.2036 15.78010638    18"
                    ]
                },
                {
                    "noradId": "65899",
                    "tle": [
                        "1 65899C 25224T   25295.06437500 -.01571400  00000+0 -97795-2 0  2957",
                        "2 65899  53.1510 299.2180 0000952  76.4290 313.7303 15.77851700    11"
                    ]
                },
                {
                    "noradId": "65898",
                    "tle": [
                        "1 65898C 25224S   25295.06298611 -.01533600  00000+0 -93963-2 0  2957",
                        "2 65898  53.1501 299.2354 0000711  82.0571 294.7844 15.78167720    12"
                    ]
                },
                {
                    "noradId": "65895",
                    "tle": [
                        "1 65895C 25224P   25295.06923611 -.01521500  00000+0 -92873-2 0  2954",
                        "2 65895  53.1502 299.2101 0000740  78.2646 331.6826 15.78239349    10"
                    ]
                },
                {
                    "noradId": "65893",
                    "tle": [
                        "1 65893C 25224M   25295.06784722 -.01499800  00000+0 -91091-2 0  2958",
                        "2 65893  53.1501 299.2265 0000636  88.7354 308.9183 15.78331430    11"
                    ]
                },
                {
                    "noradId": "65894",
                    "tle": [
                        "1 65894C 25224N   25295.06159722 -.01475000  00000+0 -89185-2 0  2952",
                        "2 65894  53.1502 299.2665 0000628  82.2006 275.6448 15.78406102    14"
                    ]
                },
                {
                    "noradId": "65891",
                    "tle": [
                        "1 65891C 25224K   25295.06506944 -.01432400  00000+0 -85991-2 0  2959",
                        "2 65891  53.1498 299.2549 0000973  77.3917 297.3186 15.78523144    11"
                    ]
                },
                {
                    "noradId": "65892",
                    "tle": [
                        "1 65892C 25224L   25295.06923611 -.00013722  00000+0 -93538-4 0  2953",
                        "2 65892  53.1589 299.4549 0001176  99.7524 192.1252 15.74193881    16"
                    ]
                },
                {
                    "noradId": "65889",
                    "tle": [
                        "1 65889C 25224H   25295.06854167 -.01494300  00000+0 -90739-2 0  2952",
                        "2 65889  53.1505 299.2274 0000843  82.9806 316.6667 15.78329490    14"
                    ]
                },
                {
                    "noradId": "65890",
                    "tle": [
                        "1 65890C 25224J   25295.06576389  .00019922  00000+0  13582-3 0  2953",
                        "2 65890  53.1583 299.4796 0001310  85.2863 183.0932 15.74156369    12"
                    ]
                },
                {
                    "noradId": "65887",
                    "tle": [
                        "1 65887C 25224F   25295.06784722 -.00011339  00000+0 -77296-4 0  2950",
                        "2 65887  53.1590 299.4454 0000777  88.3499 203.3193 15.74191772    14"
                    ]
                },
                {
                    "noradId": "65886",
                    "tle": [
                        "1 65886C 25224E   25295.04701389 -.00001693  00000+0 -11539-4 0  2955",
                        "2 65886  53.1591 299.5532 0001221 100.0625  71.5656 15.74180393    16"
                    ]
                },
                {
                    "noradId": "65888",
                    "tle": [
                        "1 65888C 25224G   25295.06993056 -.00033894  00000+0 -23096-3 0  2951",
                        "2 65888  53.1567 299.4674 0000804 107.0467 181.0604 15.74223115    14"
                    ]
                },
                {
                    "noradId": "65885",
                    "tle": [
                        "1 65885C 25224D   25295.04840278 -.00004234  00000+0 -28863-4 0  2957",
                        "2 65885  53.1589 299.5546 0001199  91.2433  84.4325 15.74180934    16"
                    ]
                },
                {
                    "noradId": "65884",
                    "tle": [
                        "1 65884C 25224C   25295.06923611 -.00017549  00000+0 -11962-3 0  2955",
                        "2 65884  53.1591 299.4585 0001134  92.2279 197.7315 15.74197721    17"
                    ]
                },
                {
                    "noradId": "65883",
                    "tle": [
                        "1 65883C 25224B   25295.06923611 -.00017810  00000+0 -12140-3 0  2954",
                        "2 65883  53.1568 299.4681 0000905  95.5672 190.5512 15.74198342    15"
                    ]
                },
                {
                    "noradId": "65882",
                    "tle": [
                        "1 65882C 25224A   25295.06506944 -.00002255  00000+0 -15374-4 0  2959",
                        "2 65882  53.1585 299.4963 0001092  79.6541 179.0268 15.74177540    19"
                    ]
                }
            ]
        }
    ],
    "config": {}
}